{
"type": "FeatureCollection",
"name": "mohammed_data_2025_12_19T11_28_30",
"crs": { "type": "name", "properties": { "name": "urn:ogc:def:crs:OGC:1.3:CRS84" } },
"features": [
{ "type": "Feature", "properties": { "id": 16347065, "title": "A-2", "username": "n.albehadli@gmail.com", "field_user_season_id": 23582830, "field_user_id": 16347065, "source": "drawn", "is_deleted": false, "season_title": null, "start_date": "2025-01-01", "end_date": "2025-12-31", "crop": "wheat_soft_spring", "harvest_date": null, "sowing_date": "2025-12-12", "yield_value": 5200.0 }, "geometry": { "type": "MultiPolygon", "coordinates": [ [ [ [ 44.019473, 32.420356 ], [ 44.019737, 32.420345 ], [ 44.019998, 32.420312 ], [ 44.020254, 32.420258 ], [ 44.020502, 32.420183 ], [ 44.02074, 32.420088 ], [ 44.020967, 32.419974 ], [ 44.021179, 32.419841 ], [ 44.021374, 32.419691 ], [ 44.021551, 32.419526 ], [ 44.021708, 32.419348 ], [ 44.021844, 32.419157 ], [ 44.021957, 32.418955 ], [ 44.022045, 32.418746 ], [ 44.022109, 32.41853 ], [ 44.022148, 32.41831 ], [ 44.022161, 32.418087 ], [ 44.022148, 32.417865 ], [ 44.022109, 32.417645 ], [ 44.022045, 32.417429 ], [ 44.021956, 32.417219 ], [ 44.021844, 32.417018 ], [ 44.021708, 32.416827 ], [ 44.021551, 32.416648 ], [ 44.021374, 32.416483 ], [ 44.021178, 32.416333 ], [ 44.020967, 32.416201 ], [ 44.02074, 32.416086 ], [ 44.020502, 32.415991 ], [ 44.020254, 32.415916 ], [ 44.019998, 32.415862 ], [ 44.019737, 32.415829 ], [ 44.019473, 32.415818 ], [ 44.01921, 32.415829 ], [ 44.018949, 32.415862 ], [ 44.018693, 32.415916 ], [ 44.018445, 32.415991 ], [ 44.018207, 32.416086 ], [ 44.01798, 32.416201 ], [ 44.017769, 32.416333 ], [ 44.017573, 32.416483 ], [ 44.017396, 32.416648 ], [ 44.017239, 32.416827 ], [ 44.017103, 32.417018 ], [ 44.016991, 32.417219 ], [ 44.016902, 32.417429 ], [ 44.016838, 32.417645 ], [ 44.016799, 32.417865 ], [ 44.016786, 32.418087 ], [ 44.016799, 32.41831 ], [ 44.016838, 32.41853 ], [ 44.016902, 32.418746 ], [ 44.01699, 32.418955 ], [ 44.017103, 32.419157 ], [ 44.017239, 32.419348 ], [ 44.017396, 32.419526 ], [ 44.017573, 32.419691 ], [ 44.017768, 32.419841 ], [ 44.01798, 32.419974 ], [ 44.018207, 32.420088 ], [ 44.018445, 32.420183 ], [ 44.018693, 32.420258 ], [ 44.018949, 32.420312 ], [ 44.01921, 32.420345 ], [ 44.019473, 32.420356 ] ] ] ] } },
{ "type": "Feature", "properties": { "id": 16347088, "title": "A-1", "username": "n.albehadli@gmail.com", "field_user_season_id": 23582853, "field_user_id": 16347088, "source": "drawn", "is_deleted": false, "season_title": null, "start_date": "2025-01-01", "end_date": "2025-12-31", "crop": "wheat_soft_spring", "harvest_date": null, "sowing_date": "2025-12-10", "yield_value": 5400.0 }, "geometry": { "type": "MultiPolygon", "coordinates": [ [ [ [ 44.021355, 32.415965 ], [ 44.021618, 32.415954 ], [ 44.021879, 32.415921 ], [ 44.022134, 32.415867 ], [ 44.022383, 32.415792 ], [ 44.022621, 32.415697 ], [ 44.022847, 32.415582 ], [ 44.023059, 32.41545 ], [ 44.023254, 32.4153 ], [ 44.023431, 32.415136 ], [ 44.023588, 32.414957 ], [ 44.023724, 32.414766 ], [ 44.023836, 32.414565 ], [ 44.023925, 32.414355 ], [ 44.023989, 32.414139 ], [ 44.024028, 32.413919 ], [ 44.024041, 32.413697 ], [ 44.024028, 32.413475 ], [ 44.023989, 32.413255 ], [ 44.023925, 32.413039 ], [ 44.023836, 32.412829 ], [ 44.023723, 32.412628 ], [ 44.023588, 32.412437 ], [ 44.023431, 32.412259 ], [ 44.023254, 32.412094 ], [ 44.023059, 32.411944 ], [ 44.022847, 32.411812 ], [ 44.022621, 32.411697 ], [ 44.022383, 32.411602 ], [ 44.022134, 32.411527 ], [ 44.021879, 32.411473 ], [ 44.021618, 32.411441 ], [ 44.021355, 32.41143 ], [ 44.021091, 32.411441 ], [ 44.020831, 32.411473 ], [ 44.020575, 32.411527 ], [ 44.020327, 32.411602 ], [ 44.020089, 32.411697 ], [ 44.019862, 32.411812 ], [ 44.019651, 32.411944 ], [ 44.019455, 32.412094 ], [ 44.019278, 32.412259 ], [ 44.019121, 32.412437 ], [ 44.018986, 32.412628 ], [ 44.018873, 32.412829 ], [ 44.018784, 32.413039 ], [ 44.01872, 32.413255 ], [ 44.018682, 32.413475 ], [ 44.018669, 32.413697 ], [ 44.018682, 32.413919 ], [ 44.01872, 32.414139 ], [ 44.018784, 32.414355 ], [ 44.018873, 32.414565 ], [ 44.018986, 32.414766 ], [ 44.019121, 32.414957 ], [ 44.019278, 32.415136 ], [ 44.019455, 32.4153 ], [ 44.019651, 32.41545 ], [ 44.019862, 32.415582 ], [ 44.020089, 32.415697 ], [ 44.020327, 32.415792 ], [ 44.020575, 32.415867 ], [ 44.020831, 32.415921 ], [ 44.021091, 32.415954 ], [ 44.021355, 32.415965 ] ] ] ] } },
{ "type": "Feature", "properties": { "id": 16347097, "title": "A-3", "username": "n.albehadli@gmail.com", "field_user_season_id": 23582862, "field_user_id": 16347097, "source": "drawn", "is_deleted": false, "season_title": null, "start_date": "2025-01-01", "end_date": "2025-12-31", "crop": "wheat_soft_spring", "harvest_date": null, "sowing_date": "2025-12-10", "yield_value": 5400.0 }, "geometry": { "type": "MultiPolygon", "coordinates": [ [ [ [ 44.0158395, 32.4143847 ], [ 44.0161026, 32.4143738 ], [ 44.0163632, 32.4143412 ], [ 44.0166188, 32.4142872 ], [ 44.0168669, 32.4142122 ], [ 44.017105, 32.4141171 ], [ 44.017331, 32.4140028 ], [ 44.0175426, 32.4138703 ], [ 44.0177378, 32.4137209 ], [ 44.0179147, 32.4135561 ], [ 44.0180717, 32.4133775 ], [ 44.0182071, 32.4131867 ], [ 44.0183198, 32.4129857 ], [ 44.0184085, 32.4127762 ], [ 44.0184725, 32.4125605 ], [ 44.0185112, 32.4123405 ], [ 44.0185241, 32.4121183 ], [ 44.0185112, 32.4118962 ], [ 44.0184725, 32.4116762 ], [ 44.0184085, 32.4114605 ], [ 44.0183197, 32.411251 ], [ 44.0182071, 32.41105 ], [ 44.0180716, 32.4108592 ], [ 44.0179147, 32.4106806 ], [ 44.0177378, 32.4105158 ], [ 44.0175425, 32.4103664 ], [ 44.0173309, 32.4102339 ], [ 44.017105, 32.4101196 ], [ 44.0168668, 32.4100245 ], [ 44.0166188, 32.4099496 ], [ 44.0163632, 32.4098955 ], [ 44.0161026, 32.4098629 ], [ 44.0158395, 32.409852 ], [ 44.0155764, 32.4098629 ], [ 44.0153158, 32.4098955 ], [ 44.0150602, 32.4099496 ], [ 44.0148122, 32.4100245 ], [ 44.014574, 32.4101196 ], [ 44.014348, 32.4102339 ], [ 44.0141364, 32.4103664 ], [ 44.0139412, 32.4105158 ], [ 44.0137643, 32.4106806 ], [ 44.0136074, 32.4108592 ], [ 44.0134719, 32.41105 ], [ 44.0133593, 32.411251 ], [ 44.0132705, 32.4114605 ], [ 44.0132065, 32.4116762 ], [ 44.0131678, 32.4118962 ], [ 44.0131549, 32.4121183 ], [ 44.0131678, 32.4123405 ], [ 44.0132065, 32.4125605 ], [ 44.0132705, 32.4127762 ], [ 44.0133592, 32.4129857 ], [ 44.0134719, 32.4131867 ], [ 44.0136073, 32.4133775 ], [ 44.0137642, 32.4135561 ], [ 44.0139412, 32.4137209 ], [ 44.0141364, 32.4138703 ], [ 44.014348, 32.4140028 ], [ 44.014574, 32.4141171 ], [ 44.0148121, 32.4142122 ], [ 44.0150602, 32.4142872 ], [ 44.0153157, 32.4143412 ], [ 44.0155764, 32.4143738 ], [ 44.0158395, 32.4143847 ] ] ] ] } },
{ "type": "Feature", "properties": { "id": 16347099, "title": "A-4", "username": "n.albehadli@gmail.com", "field_user_season_id": 23582864, "field_user_id": 16347099, "source": "drawn", "is_deleted": false, "season_title": null, "start_date": "2025-01-01", "end_date": "2025-12-31", "crop": "wheat_soft_spring", "harvest_date": null, "sowing_date": "2025-12-16", "yield_value": 5400.0 }, "geometry": { "type": "MultiPolygon", "coordinates": [ [ [ [ 44.0141153, 32.4188243 ], [ 44.0143786, 32.4188133 ], [ 44.0146394, 32.4187807 ], [ 44.0148951, 32.4187266 ], [ 44.0151433, 32.4186517 ], [ 44.0153816, 32.4185565 ], [ 44.0156077, 32.4184421 ], [ 44.0158194, 32.4183095 ], [ 44.0160147, 32.4181601 ], [ 44.0161918, 32.4179952 ], [ 44.0163488, 32.4178165 ], [ 44.0164843, 32.4176256 ], [ 44.016597, 32.4174244 ], [ 44.0166858, 32.4172149 ], [ 44.0167498, 32.4169991 ], [ 44.0167885, 32.4167789 ], [ 44.0168014, 32.4165567 ], [ 44.0167885, 32.4163344 ], [ 44.0167498, 32.4161143 ], [ 44.0166858, 32.4158984 ], [ 44.016597, 32.4156889 ], [ 44.0164842, 32.4154878 ], [ 44.0163487, 32.4152969 ], [ 44.0161917, 32.4151182 ], [ 44.0160147, 32.4149533 ], [ 44.0158193, 32.4148038 ], [ 44.0156076, 32.4146713 ], [ 44.0153815, 32.4145569 ], [ 44.0151432, 32.4144617 ], [ 44.014895, 32.4143868 ], [ 44.0146393, 32.4143327 ], [ 44.0143786, 32.4143001 ], [ 44.0141153, 32.4142891 ], [ 44.013852, 32.4143001 ], [ 44.0135913, 32.4143327 ], [ 44.0133356, 32.4143868 ], [ 44.0130874, 32.4144617 ], [ 44.0128491, 32.4145569 ], [ 44.012623, 32.4146713 ], [ 44.0124113, 32.4148038 ], [ 44.012216, 32.4149533 ], [ 44.0120389, 32.4151182 ], [ 44.0118819, 32.4152969 ], [ 44.0117464, 32.4154878 ], [ 44.0116337, 32.4156889 ], [ 44.0115449, 32.4158984 ], [ 44.0114808, 32.4161143 ], [ 44.0114421, 32.4163344 ], [ 44.0114292, 32.4165567 ], [ 44.0114421, 32.4167789 ], [ 44.0114808, 32.4169991 ], [ 44.0115448, 32.4172149 ], [ 44.0116336, 32.4174244 ], [ 44.0117463, 32.4176256 ], [ 44.0118818, 32.4178165 ], [ 44.0120389, 32.4179952 ], [ 44.0122159, 32.4181601 ], [ 44.0124112, 32.4183095 ], [ 44.0126229, 32.4184421 ], [ 44.012849, 32.4185565 ], [ 44.0130873, 32.4186517 ], [ 44.0133355, 32.4187266 ], [ 44.0135913, 32.4187807 ], [ 44.013852, 32.4188133 ], [ 44.0141153, 32.4188243 ] ] ] ] } },
{ "type": "Feature", "properties": { "id": 16347187, "title": "B-1", "username": "n.albehadli@gmail.com", "field_user_season_id": 23582952, "field_user_id": 16347187, "source": "drawn", "is_deleted": false, "season_title": null, "start_date": "2025-01-01", "end_date": "2025-12-31", "crop": "wheat_soft_spring", "harvest_date": null, "sowing_date": "2025-12-10", "yield_value": null }, "geometry": { "type": "MultiPolygon", "coordinates": [ [ [ [ 44.0228366, 32.4116369 ], [ 44.0231001, 32.4116259 ], [ 44.0233611, 32.4115932 ], [ 44.0236171, 32.4115391 ], [ 44.0238655, 32.4114641 ], [ 44.0241041, 32.4113688 ], [ 44.0243304, 32.4112543 ], [ 44.0245423, 32.4111216 ], [ 44.0247378, 32.410972 ], [ 44.024915, 32.4108069 ], [ 44.0250722, 32.410628 ], [ 44.0252079, 32.4104369 ], [ 44.0253207, 32.4102355 ], [ 44.0254095, 32.4100258 ], [ 44.0254737, 32.4098097 ], [ 44.0255124, 32.4095894 ], [ 44.0255253, 32.4093669 ], [ 44.0255124, 32.4091444 ], [ 44.0254736, 32.408924 ], [ 44.0254095, 32.4087079 ], [ 44.0253206, 32.4084982 ], [ 44.0252078, 32.4082968 ], [ 44.0250721, 32.4081058 ], [ 44.024915, 32.4079268 ], [ 44.0247378, 32.4077618 ], [ 44.0245422, 32.4076122 ], [ 44.0243303, 32.4074795 ], [ 44.024104, 32.407365 ], [ 44.0238655, 32.4072697 ], [ 44.023617, 32.4071947 ], [ 44.0233611, 32.4071406 ], [ 44.0231001, 32.4071079 ], [ 44.0228366, 32.4070969 ], [ 44.022573, 32.4071079 ], [ 44.022312, 32.4071406 ], [ 44.0220561, 32.4071947 ], [ 44.0218076, 32.4072697 ], [ 44.0215691, 32.407365 ], [ 44.0213428, 32.4074795 ], [ 44.0211309, 32.4076122 ], [ 44.0209354, 32.4077618 ], [ 44.0207582, 32.4079268 ], [ 44.020601, 32.4081058 ], [ 44.0204653, 32.4082968 ], [ 44.0203525, 32.4084982 ], [ 44.0202636, 32.4087079 ], [ 44.0201995, 32.408924 ], [ 44.0201608, 32.4091444 ], [ 44.0201478, 32.4093669 ], [ 44.0201607, 32.4095894 ], [ 44.0201995, 32.4098097 ], [ 44.0202636, 32.4100258 ], [ 44.0203524, 32.4102355 ], [ 44.0204653, 32.4104369 ], [ 44.0206009, 32.410628 ], [ 44.0207581, 32.4108069 ], [ 44.0209353, 32.410972 ], [ 44.0211308, 32.4111216 ], [ 44.0213427, 32.4112543 ], [ 44.0215691, 32.4113688 ], [ 44.0218076, 32.4114641 ], [ 44.022056, 32.4115391 ], [ 44.022312, 32.4115932 ], [ 44.022573, 32.4116259 ], [ 44.0228366, 32.4116369 ] ] ] ] } },
{ "type": "Feature", "properties": { "id": 16347188, "title": "B-2", "username": "n.albehadli@gmail.com", "field_user_season_id": 23582953, "field_user_id": 16347188, "source": "drawn", "is_deleted": false, "season_title": null, "start_date": "2025-01-01", "end_date": "2025-12-31", "crop": "wheat_soft_spring", "harvest_date": null, "sowing_date": "2025-12-10", "yield_value": null }, "geometry": { "type": "MultiPolygon", "coordinates": [ [ [ [ 44.024541, 32.4072711 ], [ 44.0248044, 32.4072601 ], [ 44.0250654, 32.4072275 ], [ 44.0253212, 32.4071734 ], [ 44.0255696, 32.4070983 ], [ 44.025808, 32.4070031 ], [ 44.0260342, 32.4068886 ], [ 44.0262461, 32.406756 ], [ 44.0264415, 32.4066064 ], [ 44.0266187, 32.4064414 ], [ 44.0267758, 32.4062626 ], [ 44.0269114, 32.4060715 ], [ 44.0270242, 32.4058702 ], [ 44.027113, 32.4056606 ], [ 44.0271771, 32.4054445 ], [ 44.0272158, 32.4052243 ], [ 44.0272287, 32.4050018 ], [ 44.0272158, 32.4047794 ], [ 44.0271771, 32.4045591 ], [ 44.027113, 32.4043431 ], [ 44.0270241, 32.4041335 ], [ 44.0269113, 32.4039322 ], [ 44.0267757, 32.4037412 ], [ 44.0266186, 32.4035623 ], [ 44.0264415, 32.4033973 ], [ 44.026246, 32.4032477 ], [ 44.0260342, 32.4031151 ], [ 44.0258079, 32.4030006 ], [ 44.0255695, 32.4029054 ], [ 44.0253212, 32.4028304 ], [ 44.0250653, 32.4027763 ], [ 44.0248044, 32.4027436 ], [ 44.024541, 32.4027327 ], [ 44.0242776, 32.4027436 ], [ 44.0240167, 32.4027763 ], [ 44.0237608, 32.4028304 ], [ 44.0235125, 32.4029054 ], [ 44.023274, 32.4030006 ], [ 44.0230478, 32.4031151 ], [ 44.0228359, 32.4032477 ], [ 44.0226405, 32.4033973 ], [ 44.0224634, 32.4035623 ], [ 44.0223063, 32.4037412 ], [ 44.0221707, 32.4039322 ], [ 44.0220579, 32.4041335 ], [ 44.021969, 32.4043431 ], [ 44.0219049, 32.4045591 ], [ 44.0218662, 32.4047794 ], [ 44.0218533, 32.4050018 ], [ 44.0218662, 32.4052243 ], [ 44.0219049, 32.4054445 ], [ 44.021969, 32.4056606 ], [ 44.0220578, 32.4058702 ], [ 44.0221706, 32.4060715 ], [ 44.0223062, 32.4062626 ], [ 44.0224633, 32.4064414 ], [ 44.0226404, 32.4066064 ], [ 44.0228359, 32.406756 ], [ 44.0230477, 32.4068886 ], [ 44.023274, 32.4070031 ], [ 44.0235124, 32.4070983 ], [ 44.0237608, 32.4071734 ], [ 44.0240166, 32.4072275 ], [ 44.0242775, 32.4072601 ], [ 44.024541, 32.4072711 ] ] ] ] } },
{ "type": "Feature", "properties": { "id": 16347191, "title": "B-4", "username": "n.albehadli@gmail.com", "field_user_season_id": 23582956, "field_user_id": 16347191, "source": "drawn", "is_deleted": false, "season_title": null, "start_date": "2025-01-01", "end_date": "2025-12-31", "crop": "wheat_soft_spring", "harvest_date": null, "sowing_date": "2025-12-12", "yield_value": null }, "geometry": { "type": "MultiPolygon", "coordinates": [ [ [ [ 44.0194064, 32.4055253 ], [ 44.0196695, 32.4055143 ], [ 44.01993, 32.4054817 ], [ 44.0201856, 32.4054277 ], [ 44.0204336, 32.4053527 ], [ 44.0206717, 32.4052577 ], [ 44.0208976, 32.4051433 ], [ 44.0211092, 32.4050108 ], [ 44.0213043, 32.4048615 ], [ 44.0214812, 32.4046967 ], [ 44.0216381, 32.4045181 ], [ 44.0217736, 32.4043273 ], [ 44.0218862, 32.4041263 ], [ 44.0219749, 32.4039169 ], [ 44.0220389, 32.4037012 ], [ 44.0220775, 32.4034812 ], [ 44.0220905, 32.4032591 ], [ 44.0220775, 32.403037 ], [ 44.0220389, 32.402817 ], [ 44.0219749, 32.4026012 ], [ 44.0218861, 32.4023919 ], [ 44.0217735, 32.4021908 ], [ 44.0216381, 32.4020001 ], [ 44.0214812, 32.4018215 ], [ 44.0213043, 32.4016567 ], [ 44.0211091, 32.4015073 ], [ 44.0208975, 32.4013749 ], [ 44.0206716, 32.4012605 ], [ 44.0204335, 32.4011654 ], [ 44.0201855, 32.4010905 ], [ 44.01993, 32.4010365 ], [ 44.0196695, 32.4010039 ], [ 44.0194064, 32.4009929 ], [ 44.0191433, 32.4010039 ], [ 44.0188828, 32.4010365 ], [ 44.0186273, 32.4010905 ], [ 44.0183793, 32.4011654 ], [ 44.0181412, 32.4012605 ], [ 44.0179152, 32.4013749 ], [ 44.0177037, 32.4015073 ], [ 44.0175085, 32.4016567 ], [ 44.0173316, 32.4018215 ], [ 44.0171747, 32.4020001 ], [ 44.0170393, 32.4021908 ], [ 44.0169267, 32.4023919 ], [ 44.0168379, 32.4026012 ], [ 44.0167739, 32.402817 ], [ 44.0167352, 32.403037 ], [ 44.0167223, 32.4032591 ], [ 44.0167352, 32.4034812 ], [ 44.0167739, 32.4037012 ], [ 44.0168379, 32.4039169 ], [ 44.0169266, 32.4041263 ], [ 44.0170392, 32.4043273 ], [ 44.0171746, 32.4045181 ], [ 44.0173315, 32.4046967 ], [ 44.0175084, 32.4048615 ], [ 44.0177036, 32.4050108 ], [ 44.0179152, 32.4051433 ], [ 44.0181411, 32.4052577 ], [ 44.0183792, 32.4053527 ], [ 44.0186272, 32.4054277 ], [ 44.0188827, 32.4054817 ], [ 44.0191433, 32.4055143 ], [ 44.0194064, 32.4055253 ] ] ] ] } },
{ "type": "Feature", "properties": { "id": 16347194, "title": "B-3", "username": "n.albehadli@gmail.com", "field_user_season_id": 23582959, "field_user_id": 16347194, "source": "drawn", "is_deleted": false, "season_title": null, "start_date": "2025-01-01", "end_date": "2025-12-31", "crop": "wheat_soft_spring", "harvest_date": null, "sowing_date": "2025-12-12", "yield_value": null }, "geometry": { "type": "MultiPolygon", "coordinates": [ [ [ [ 44.017627, 32.4100064 ], [ 44.0178907, 32.4099954 ], [ 44.0181518, 32.4099627 ], [ 44.0184079, 32.4099086 ], [ 44.0186565, 32.4098335 ], [ 44.0188951, 32.4097382 ], [ 44.0191216, 32.4096236 ], [ 44.0193336, 32.4094908 ], [ 44.0195292, 32.4093412 ], [ 44.0197065, 32.409176 ], [ 44.0198638, 32.408997 ], [ 44.0199995, 32.4088058 ], [ 44.0201124, 32.4086043 ], [ 44.0202013, 32.4083945 ], [ 44.0202654, 32.4081783 ], [ 44.0203042, 32.4079578 ], [ 44.0203171, 32.4077352 ], [ 44.0203042, 32.4075126 ], [ 44.0202654, 32.4072921 ], [ 44.0202013, 32.4070759 ], [ 44.0201123, 32.406866 ], [ 44.0199994, 32.4066645 ], [ 44.0198637, 32.4064734 ], [ 44.0197065, 32.4062944 ], [ 44.0195292, 32.4061292 ], [ 44.0193336, 32.4059795 ], [ 44.0191215, 32.4058468 ], [ 44.0188951, 32.4057322 ], [ 44.0186564, 32.4056369 ], [ 44.0184079, 32.4055618 ], [ 44.0181518, 32.4055077 ], [ 44.0178906, 32.405475 ], [ 44.017627, 32.405464 ], [ 44.0173633, 32.405475 ], [ 44.0171022, 32.4055077 ], [ 44.0168461, 32.4055618 ], [ 44.0165975, 32.4056369 ], [ 44.0163589, 32.4057322 ], [ 44.0161324, 32.4058468 ], [ 44.0159204, 32.4059795 ], [ 44.0157248, 32.4061292 ], [ 44.0155475, 32.4062944 ], [ 44.0153902, 32.4064734 ], [ 44.0152545, 32.4066645 ], [ 44.0151416, 32.406866 ], [ 44.0150527, 32.4070759 ], [ 44.0149885, 32.4072921 ], [ 44.0149498, 32.4075126 ], [ 44.0149368, 32.4077352 ], [ 44.0149498, 32.4079578 ], [ 44.0149885, 32.4081783 ], [ 44.0150526, 32.4083945 ], [ 44.0151416, 32.4086043 ], [ 44.0152544, 32.4088058 ], [ 44.0153901, 32.408997 ], [ 44.0155474, 32.409176 ], [ 44.0157247, 32.4093412 ], [ 44.0159203, 32.4094908 ], [ 44.0161324, 32.4096236 ], [ 44.0163588, 32.4097382 ], [ 44.0165975, 32.4098335 ], [ 44.016846, 32.4099086 ], [ 44.0171021, 32.4099627 ], [ 44.0173633, 32.4099954 ], [ 44.017627, 32.4100064 ] ] ] ] } },
{ "type": "Feature", "properties": { "id": 16392420, "title": "C-1", "username": "n.albehadli@gmail.com", "field_user_season_id": 23649611, "field_user_id": 16392420, "source": "drawn", "is_deleted": false, "season_title": null, "start_date": "2025-01-01", "end_date": "2025-12-31", "crop": "wheat_soft_spring", "harvest_date": null, "sowing_date": "2025-12-10", "yield_value": null }, "geometry": { "type": "MultiPolygon", "coordinates": [ [ [ [ 44.011984, 32.4081475 ], [ 44.0122475, 32.4081366 ], [ 44.0125085, 32.4081039 ], [ 44.0127644, 32.4080498 ], [ 44.0130128, 32.4079748 ], [ 44.0132513, 32.4078795 ], [ 44.0134776, 32.407765 ], [ 44.0136895, 32.4076323 ], [ 44.013885, 32.4074827 ], [ 44.0140622, 32.4073177 ], [ 44.0142193, 32.4071388 ], [ 44.014355, 32.4069477 ], [ 44.0144678, 32.4067464 ], [ 44.0145566, 32.4065367 ], [ 44.0146207, 32.4063206 ], [ 44.0146594, 32.4061003 ], [ 44.0146724, 32.4058778 ], [ 44.0146594, 32.4056554 ], [ 44.0146207, 32.405435 ], [ 44.0145566, 32.405219 ], [ 44.0144677, 32.4050093 ], [ 44.0143549, 32.4048079 ], [ 44.0142193, 32.4046169 ], [ 44.0140621, 32.404438 ], [ 44.0138849, 32.4042729 ], [ 44.0136895, 32.4041233 ], [ 44.0134776, 32.4039907 ], [ 44.0132513, 32.4038762 ], [ 44.0130128, 32.4037809 ], [ 44.0127644, 32.4037059 ], [ 44.0125085, 32.4036518 ], [ 44.0122475, 32.4036191 ], [ 44.011984, 32.4036082 ], [ 44.0117205, 32.4036191 ], [ 44.0114596, 32.4036518 ], [ 44.0112037, 32.4037059 ], [ 44.0109553, 32.4037809 ], [ 44.0107168, 32.4038762 ], [ 44.0104905, 32.4039907 ], [ 44.0102786, 32.4041233 ], [ 44.0100831, 32.4042729 ], [ 44.009906, 32.404438 ], [ 44.0097488, 32.4046169 ], [ 44.0096132, 32.4048079 ], [ 44.0095004, 32.4050093 ], [ 44.0094115, 32.405219 ], [ 44.0093474, 32.405435 ], [ 44.0093087, 32.4056554 ], [ 44.0092957, 32.4058778 ], [ 44.0093086, 32.4061003 ], [ 44.0093473, 32.4063206 ], [ 44.0094114, 32.4065367 ], [ 44.0095003, 32.4067464 ], [ 44.0096131, 32.4069477 ], [ 44.0097487, 32.4071388 ], [ 44.0099059, 32.4073177 ], [ 44.0100831, 32.4074827 ], [ 44.0102785, 32.4076323 ], [ 44.0104905, 32.407765 ], [ 44.0107167, 32.4078795 ], [ 44.0109552, 32.4079748 ], [ 44.0112036, 32.4080498 ], [ 44.0114596, 32.4081039 ], [ 44.0117205, 32.4081366 ], [ 44.011984, 32.4081475 ] ] ] ] } },
{ "type": "Feature", "properties": { "id": 16392421, "title": "C-2", "username": "n.albehadli@gmail.com", "field_user_season_id": 23649612, "field_user_id": 16392421, "source": "drawn", "is_deleted": false, "season_title": null, "start_date": "2025-01-01", "end_date": "2025-12-31", "crop": "wheat_soft_spring", "harvest_date": null, "sowing_date": "2025-12-10", "yield_value": null }, "geometry": { "type": "MultiPolygon", "coordinates": [ [ [ [ 44.014103, 32.403971 ], [ 44.014367, 32.40396 ], [ 44.014628, 32.403928 ], [ 44.014884, 32.403873 ], [ 44.015132, 32.403798 ], [ 44.015371, 32.403703 ], [ 44.015597, 32.403589 ], [ 44.015809, 32.403456 ], [ 44.016005, 32.403306 ], [ 44.016182, 32.403141 ], [ 44.016339, 32.402962 ], [ 44.016475, 32.402771 ], [ 44.016587, 32.40257 ], [ 44.016676, 32.40236 ], [ 44.01674, 32.402144 ], [ 44.016779, 32.401924 ], [ 44.016792, 32.401701 ], [ 44.016779, 32.401479 ], [ 44.01674, 32.401258 ], [ 44.016676, 32.401042 ], [ 44.016587, 32.400832 ], [ 44.016475, 32.400631 ], [ 44.016339, 32.40044 ], [ 44.016182, 32.400261 ], [ 44.016004, 32.400096 ], [ 44.015809, 32.399946 ], [ 44.015597, 32.399814 ], [ 44.015371, 32.399699 ], [ 44.015132, 32.399604 ], [ 44.014884, 32.399529 ], [ 44.014628, 32.399475 ], [ 44.014367, 32.399442 ], [ 44.014103, 32.399431 ], [ 44.01384, 32.399442 ], [ 44.013579, 32.399475 ], [ 44.013323, 32.399529 ], [ 44.013074, 32.399604 ], [ 44.012836, 32.399699 ], [ 44.01261, 32.399814 ], [ 44.012398, 32.399946 ], [ 44.012202, 32.400096 ], [ 44.012025, 32.400261 ], [ 44.011868, 32.40044 ], [ 44.011732, 32.400631 ], [ 44.011619, 32.400832 ], [ 44.011531, 32.401042 ], [ 44.011466, 32.401258 ], [ 44.011428, 32.401479 ], [ 44.011415, 32.401701 ], [ 44.011428, 32.401924 ], [ 44.011466, 32.402144 ], [ 44.01153, 32.40236 ], [ 44.011619, 32.40257 ], [ 44.011732, 32.402771 ], [ 44.011868, 32.402962 ], [ 44.012025, 32.403141 ], [ 44.012202, 32.403306 ], [ 44.012398, 32.403456 ], [ 44.01261, 32.403589 ], [ 44.012836, 32.403703 ], [ 44.013074, 32.403798 ], [ 44.013323, 32.403873 ], [ 44.013579, 32.403928 ], [ 44.01384, 32.40396 ], [ 44.014103, 32.403971 ] ] ] ] } },
{ "type": "Feature", "properties": { "id": 16516166, "title": "D-3", "username": "n.albehadli@gmail.com", "field_user_season_id": 23812583, "field_user_id": 16516166, "source": "drawn", "is_deleted": false, "season_title": null, "start_date": "2025-01-01", "end_date": "2025-12-31", "crop": "wheat_soft_spring", "harvest_date": null, "sowing_date": "2025-12-17", "yield_value": null }, "geometry": { "type": "MultiPolygon", "coordinates": [ [ [ [ 44.004531, 32.41082 ], [ 44.004794, 32.41081 ], [ 44.005055, 32.410777 ], [ 44.005311, 32.410723 ], [ 44.005559, 32.410648 ], [ 44.005797, 32.410553 ], [ 44.006024, 32.410438 ], [ 44.006235, 32.410306 ], [ 44.006431, 32.410156 ], [ 44.006608, 32.409991 ], [ 44.006765, 32.409812 ], [ 44.0069, 32.409621 ], [ 44.007013, 32.40942 ], [ 44.007102, 32.409211 ], [ 44.007166, 32.408995 ], [ 44.007205, 32.408775 ], [ 44.007218, 32.408552 ], [ 44.007205, 32.40833 ], [ 44.007166, 32.40811 ], [ 44.007102, 32.407894 ], [ 44.007013, 32.407684 ], [ 44.0069, 32.407483 ], [ 44.006765, 32.407292 ], [ 44.006608, 32.407113 ], [ 44.006431, 32.406948 ], [ 44.006235, 32.406799 ], [ 44.006024, 32.406666 ], [ 44.005797, 32.406552 ], [ 44.005559, 32.406457 ], [ 44.005311, 32.406382 ], [ 44.005055, 32.406328 ], [ 44.004794, 32.406295 ], [ 44.004531, 32.406284 ], [ 44.004268, 32.406295 ], [ 44.004007, 32.406328 ], [ 44.003751, 32.406382 ], [ 44.003503, 32.406457 ], [ 44.003264, 32.406552 ], [ 44.003038, 32.406666 ], [ 44.002827, 32.406799 ], [ 44.002631, 32.406948 ], [ 44.002454, 32.407113 ], [ 44.002297, 32.407292 ], [ 44.002161, 32.407483 ], [ 44.002049, 32.407684 ], [ 44.00196, 32.407894 ], [ 44.001896, 32.40811 ], [ 44.001857, 32.40833 ], [ 44.001844, 32.408552 ], [ 44.001857, 32.408775 ], [ 44.001896, 32.408995 ], [ 44.00196, 32.409211 ], [ 44.002049, 32.40942 ], [ 44.002161, 32.409621 ], [ 44.002297, 32.409812 ], [ 44.002454, 32.409991 ], [ 44.002631, 32.410156 ], [ 44.002826, 32.410306 ], [ 44.003038, 32.410438 ], [ 44.003264, 32.410553 ], [ 44.003503, 32.410648 ], [ 44.003751, 32.410723 ], [ 44.004007, 32.410777 ], [ 44.004268, 32.41081 ], [ 44.004531, 32.41082 ] ] ] ] } },
{ "type": "Feature", "properties": { "id": 16516168, "title": "C-3", "username": "n.albehadli@gmail.com", "field_user_season_id": 23812629, "field_user_id": 16516168, "source": "drawn", "is_deleted": false, "season_title": null, "start_date": "2025-01-01", "end_date": "2025-12-31", "crop": "wheat_soft_spring", "harvest_date": null, "sowing_date": "2025-12-10", "yield_value": null }, "geometry": { "type": "MultiPolygon", "coordinates": [ [ [ [ 44.006907, 32.406413 ], [ 44.00717, 32.406402 ], [ 44.007431, 32.406369 ], [ 44.007686, 32.406315 ], [ 44.007934, 32.40624 ], [ 44.008173, 32.406145 ], [ 44.008399, 32.406031 ], [ 44.00861, 32.405898 ], [ 44.008806, 32.405749 ], [ 44.008983, 32.405584 ], [ 44.00914, 32.405405 ], [ 44.009275, 32.405215 ], [ 44.009388, 32.405013 ], [ 44.009476, 32.404804 ], [ 44.00954, 32.404588 ], [ 44.009579, 32.404368 ], [ 44.009592, 32.404146 ], [ 44.009579, 32.403924 ], [ 44.00954, 32.403704 ], [ 44.009476, 32.403488 ], [ 44.009388, 32.403278 ], [ 44.009275, 32.403077 ], [ 44.009139, 32.402886 ], [ 44.008982, 32.402708 ], [ 44.008806, 32.402543 ], [ 44.00861, 32.402394 ], [ 44.008399, 32.402261 ], [ 44.008173, 32.402147 ], [ 44.007934, 32.402052 ], [ 44.007686, 32.401977 ], [ 44.007431, 32.401923 ], [ 44.00717, 32.40189 ], [ 44.006907, 32.401879 ], [ 44.006644, 32.40189 ], [ 44.006383, 32.401923 ], [ 44.006127, 32.401977 ], [ 44.005879, 32.402052 ], [ 44.005641, 32.402147 ], [ 44.005415, 32.402261 ], [ 44.005204, 32.402394 ], [ 44.005008, 32.402543 ], [ 44.004831, 32.402708 ], [ 44.004674, 32.402886 ], [ 44.004539, 32.403077 ], [ 44.004426, 32.403278 ], [ 44.004337, 32.403488 ], [ 44.004273, 32.403704 ], [ 44.004235, 32.403924 ], [ 44.004222, 32.404146 ], [ 44.004235, 32.404368 ], [ 44.004273, 32.404588 ], [ 44.004337, 32.404804 ], [ 44.004426, 32.405013 ], [ 44.004539, 32.405215 ], [ 44.004674, 32.405405 ], [ 44.004831, 32.405584 ], [ 44.005008, 32.405749 ], [ 44.005203, 32.405898 ], [ 44.005415, 32.406031 ], [ 44.005641, 32.406145 ], [ 44.005879, 32.40624 ], [ 44.006127, 32.406315 ], [ 44.006383, 32.406369 ], [ 44.006644, 32.406402 ], [ 44.006907, 32.406413 ] ] ] ] } },
{ "type": "Feature", "properties": { "id": 16516453, "title": "C-4", "username": "n.albehadli@gmail.com", "field_user_season_id": 23812994, "field_user_id": 16516453, "source": "drawn", "is_deleted": false, "season_title": null, "start_date": "2025-01-01", "end_date": "2025-12-31", "crop": "wheat_soft_spring", "harvest_date": null, "sowing_date": "2025-12-10", "yield_value": null }, "geometry": { "type": "MultiPolygon", "coordinates": [ [ [ [ 44.009182, 32.402204 ], [ 44.009446, 32.402193 ], [ 44.009706, 32.402161 ], [ 44.009962, 32.402107 ], [ 44.010211, 32.402032 ], [ 44.010449, 32.401936 ], [ 44.010675, 32.401822 ], [ 44.010887, 32.401689 ], [ 44.011083, 32.40154 ], [ 44.01126, 32.401375 ], [ 44.011417, 32.401196 ], [ 44.011553, 32.401005 ], [ 44.011665, 32.400803 ], [ 44.011754, 32.400594 ], [ 44.011818, 32.400378 ], [ 44.011857, 32.400157 ], [ 44.01187, 32.399935 ], [ 44.011857, 32.399712 ], [ 44.011818, 32.399492 ], [ 44.011754, 32.399276 ], [ 44.011665, 32.399066 ], [ 44.011552, 32.398865 ], [ 44.011417, 32.398674 ], [ 44.01126, 32.398495 ], [ 44.011083, 32.39833 ], [ 44.010887, 32.398181 ], [ 44.010675, 32.398048 ], [ 44.010449, 32.397933 ], [ 44.010211, 32.397838 ], [ 44.009962, 32.397763 ], [ 44.009706, 32.397709 ], [ 44.009446, 32.397676 ], [ 44.009182, 32.397665 ], [ 44.008919, 32.397676 ], [ 44.008658, 32.397709 ], [ 44.008402, 32.397763 ], [ 44.008154, 32.397838 ], [ 44.007915, 32.397933 ], [ 44.007689, 32.398048 ], [ 44.007477, 32.398181 ], [ 44.007282, 32.39833 ], [ 44.007104, 32.398495 ], [ 44.006947, 32.398674 ], [ 44.006812, 32.398865 ], [ 44.006699, 32.399066 ], [ 44.00661, 32.399276 ], [ 44.006546, 32.399492 ], [ 44.006507, 32.399712 ], [ 44.006494, 32.399935 ], [ 44.006507, 32.400157 ], [ 44.006546, 32.400378 ], [ 44.00661, 32.400594 ], [ 44.006699, 32.400803 ], [ 44.006812, 32.401005 ], [ 44.006947, 32.401196 ], [ 44.007104, 32.401375 ], [ 44.007282, 32.40154 ], [ 44.007477, 32.401689 ], [ 44.007689, 32.401822 ], [ 44.007915, 32.401936 ], [ 44.008154, 32.402032 ], [ 44.008402, 32.402107 ], [ 44.008658, 32.402161 ], [ 44.008919, 32.402193 ], [ 44.009182, 32.402204 ] ] ] ] } },
{ "type": "Feature", "properties": { "id": 16520191, "title": "D-1", "username": "n.albehadli@gmail.com", "field_user_season_id": 23817667, "field_user_id": 16520191, "source": "drawn", "is_deleted": false, "season_title": null, "start_date": "2025-01-01", "end_date": "2025-12-31", "crop": "wheat_soft_spring", "harvest_date": null, "sowing_date": "2025-12-17", "yield_value": null }, "geometry": { "type": "MultiPolygon", "coordinates": [ [ [ [ 44.009575, 32.4124 ], [ 44.009838, 32.412389 ], [ 44.010099, 32.412357 ], [ 44.010355, 32.412302 ], [ 44.010603, 32.412227 ], [ 44.010842, 32.412132 ], [ 44.011068, 32.412018 ], [ 44.01128, 32.411885 ], [ 44.011476, 32.411735 ], [ 44.011653, 32.41157 ], [ 44.01181, 32.411391 ], [ 44.011946, 32.4112 ], [ 44.012058, 32.410999 ], [ 44.012147, 32.410789 ], [ 44.012211, 32.410573 ], [ 44.01225, 32.410353 ], [ 44.012263, 32.41013 ], [ 44.01225, 32.409908 ], [ 44.012211, 32.409688 ], [ 44.012147, 32.409472 ], [ 44.012058, 32.409262 ], [ 44.011946, 32.409061 ], [ 44.01181, 32.408869 ], [ 44.011653, 32.408691 ], [ 44.011476, 32.408526 ], [ 44.01128, 32.408376 ], [ 44.011068, 32.408243 ], [ 44.010842, 32.408129 ], [ 44.010603, 32.408034 ], [ 44.010355, 32.407959 ], [ 44.010099, 32.407904 ], [ 44.009838, 32.407872 ], [ 44.009575, 32.407861 ], [ 44.009311, 32.407872 ], [ 44.00905, 32.407904 ], [ 44.008794, 32.407959 ], [ 44.008546, 32.408034 ], [ 44.008307, 32.408129 ], [ 44.008081, 32.408243 ], [ 44.007869, 32.408376 ], [ 44.007674, 32.408526 ], [ 44.007496, 32.408691 ], [ 44.007339, 32.408869 ], [ 44.007204, 32.409061 ], [ 44.007091, 32.409262 ], [ 44.007002, 32.409472 ], [ 44.006938, 32.409688 ], [ 44.006899, 32.409908 ], [ 44.006886, 32.41013 ], [ 44.006899, 32.410353 ], [ 44.006938, 32.410573 ], [ 44.007002, 32.410789 ], [ 44.007091, 32.410999 ], [ 44.007204, 32.4112 ], [ 44.007339, 32.411391 ], [ 44.007496, 32.41157 ], [ 44.007673, 32.411735 ], [ 44.007869, 32.411885 ], [ 44.008081, 32.412018 ], [ 44.008307, 32.412132 ], [ 44.008546, 32.412227 ], [ 44.008794, 32.412302 ], [ 44.00905, 32.412357 ], [ 44.009311, 32.412389 ], [ 44.009575, 32.4124 ] ] ] ] } },
{ "type": "Feature", "properties": { "id": 16520194, "title": "D-2", "username": "n.albehadli@gmail.com", "field_user_season_id": 23817670, "field_user_id": 16520194, "source": "drawn", "is_deleted": false, "season_title": null, "start_date": "2025-01-01", "end_date": "2025-12-31", "crop": "wheat_soft_spring", "harvest_date": null, "sowing_date": "2025-12-20", "yield_value": null }, "geometry": { "type": "MultiPolygon", "coordinates": [ [ [ [ 44.007219, 32.416584 ], [ 44.007482, 32.416573 ], [ 44.007742, 32.416541 ], [ 44.007998, 32.416487 ], [ 44.008246, 32.416412 ], [ 44.008484, 32.416317 ], [ 44.00871, 32.416202 ], [ 44.008921, 32.41607 ], [ 44.009116, 32.415921 ], [ 44.009293, 32.415756 ], [ 44.00945, 32.415577 ], [ 44.009586, 32.415387 ], [ 44.009698, 32.415186 ], [ 44.009787, 32.414976 ], [ 44.009851, 32.414761 ], [ 44.00989, 32.414541 ], [ 44.009903, 32.414319 ], [ 44.00989, 32.414097 ], [ 44.009851, 32.413877 ], [ 44.009787, 32.413661 ], [ 44.009698, 32.413452 ], [ 44.009586, 32.413251 ], [ 44.00945, 32.41306 ], [ 44.009293, 32.412881 ], [ 44.009116, 32.412717 ], [ 44.008921, 32.412567 ], [ 44.00871, 32.412435 ], [ 44.008484, 32.41232 ], [ 44.008246, 32.412225 ], [ 44.007998, 32.412151 ], [ 44.007742, 32.412096 ], [ 44.007482, 32.412064 ], [ 44.007219, 32.412053 ], [ 44.006956, 32.412064 ], [ 44.006695, 32.412096 ], [ 44.00644, 32.412151 ], [ 44.006192, 32.412225 ], [ 44.005954, 32.41232 ], [ 44.005728, 32.412435 ], [ 44.005516, 32.412567 ], [ 44.005321, 32.412717 ], [ 44.005144, 32.412881 ], [ 44.004987, 32.41306 ], [ 44.004852, 32.413251 ], [ 44.004739, 32.413452 ], [ 44.00465, 32.413661 ], [ 44.004586, 32.413877 ], [ 44.004548, 32.414097 ], [ 44.004535, 32.414319 ], [ 44.004548, 32.414541 ], [ 44.004586, 32.414761 ], [ 44.00465, 32.414976 ], [ 44.004739, 32.415186 ], [ 44.004852, 32.415387 ], [ 44.004987, 32.415577 ], [ 44.005144, 32.415756 ], [ 44.005321, 32.415921 ], [ 44.005516, 32.41607 ], [ 44.005728, 32.416202 ], [ 44.005953, 32.416317 ], [ 44.006192, 32.416412 ], [ 44.00644, 32.416487 ], [ 44.006695, 32.416541 ], [ 44.006956, 32.416573 ], [ 44.007219, 32.416584 ] ] ] ] } },
{ "type": "Feature", "properties": { "id": 16520196, "title": "D-4", "username": "n.albehadli@gmail.com", "field_user_season_id": 23817672, "field_user_id": 16520196, "source": "drawn", "is_deleted": false, "season_title": null, "start_date": "2025-01-01", "end_date": "2025-12-31", "crop": "wheat_soft_spring", "harvest_date": null, "sowing_date": "2025-12-17", "yield_value": null }, "geometry": { "type": "MultiPolygon", "coordinates": [ [ [ [ 44.002156, 32.414874 ], [ 44.002419, 32.414863 ], [ 44.00268, 32.41483 ], [ 44.002935, 32.414776 ], [ 44.003184, 32.414701 ], [ 44.003422, 32.414606 ], [ 44.003648, 32.414492 ], [ 44.00386, 32.414359 ], [ 44.004055, 32.414209 ], [ 44.004232, 32.414045 ], [ 44.004389, 32.413866 ], [ 44.004525, 32.413675 ], [ 44.004638, 32.413474 ], [ 44.004726, 32.413264 ], [ 44.004791, 32.413048 ], [ 44.004829, 32.412828 ], [ 44.004842, 32.412606 ], [ 44.004829, 32.412383 ], [ 44.00479, 32.412163 ], [ 44.004726, 32.411947 ], [ 44.004638, 32.411738 ], [ 44.004525, 32.411537 ], [ 44.004389, 32.411346 ], [ 44.004232, 32.411167 ], [ 44.004055, 32.411002 ], [ 44.00386, 32.410853 ], [ 44.003648, 32.41072 ], [ 44.003422, 32.410606 ], [ 44.003184, 32.41051 ], [ 44.002935, 32.410435 ], [ 44.00268, 32.410381 ], [ 44.002419, 32.410349 ], [ 44.002156, 32.410338 ], [ 44.001892, 32.410349 ], [ 44.001632, 32.410381 ], [ 44.001376, 32.410435 ], [ 44.001128, 32.41051 ], [ 44.000889, 32.410606 ], [ 44.000663, 32.41072 ], [ 44.000451, 32.410853 ], [ 44.000256, 32.411002 ], [ 44.000079, 32.411167 ], [ 43.999922, 32.411346 ], [ 43.999786, 32.411537 ], [ 43.999674, 32.411738 ], [ 43.999585, 32.411947 ], [ 43.999521, 32.412163 ], [ 43.999482, 32.412383 ], [ 43.999469, 32.412606 ], [ 43.999482, 32.412828 ], [ 43.999521, 32.413048 ], [ 43.999585, 32.413264 ], [ 43.999674, 32.413474 ], [ 43.999786, 32.413675 ], [ 43.999922, 32.413866 ], [ 44.000079, 32.414045 ], [ 44.000256, 32.414209 ], [ 44.000451, 32.414359 ], [ 44.000663, 32.414492 ], [ 44.000889, 32.414606 ], [ 44.001128, 32.414701 ], [ 44.001376, 32.414776 ], [ 44.001631, 32.41483 ], [ 44.001892, 32.414863 ], [ 44.002156, 32.414874 ] ] ] ] } }
]
}
